{
    "links": {
        "self": "http://www.neowsapp.com/rest/v1/neo/3395955?api_key=iIulBulltgU6a56xZRHN4H3l9WmuAYTsLGpBGhQ2"
    },
    "id": "3395955",
    "neo_reference_id": "3395955",
    "name": "(2007 WL3)",
    "designation": "2007 WL3",
    "nasa_jpl_url": "http://ssd.jpl.nasa.gov/sbdb.cgi?sstr=3395955",
    "absolute_magnitude_h": 24.2,
    "estimated_diameter": {
        "kilometers": {
            "estimated_diameter_min": 0.0384197891,
            "estimated_diameter_max": 0.0859092601
        },
        "meters": {
            "estimated_diameter_min": 38.4197891064,
            "estimated_diameter_max": 85.9092601232
        },
        "miles": {
            "estimated_diameter_min": 0.0238729428,
            "estimated_diameter_max": 0.0533815229
        },
        "feet": {
            "estimated_diameter_min": 126.0491808919,
            "estimated_diameter_max": 281.8545369825
        }
    },
    "is_potentially_hazardous_asteroid": false,
    "close_approach_data": [
        {
            "close_approach_date": "2007-11-12",
            "close_approach_date_full": "2007-Nov-12 10:49",
            "epoch_date_close_approach": 1194864540000,
            "relative_velocity": {
                "kilometers_per_second": "23.1092235274",
                "kilometers_per_hour": "83193.2046987696",
                "miles_per_hour": "51693.0221085216"
            },
            "miss_distance": {
                "astronomical": "0.0470798013",
                "lunar": "18.3140427057",
                "kilometers": "7043037.994503231",
                "miles": "4376340.8761613478"
            },
            "orbiting_body": "Earth"
        }
    ],
    "orbital_data": {
        "orbit_id": "6",
        "orbit_determination_date": "2017-04-06 09:05:05",
        "first_observation_date": "2007-11-17",
        "last_observation_date": "2007-11-19",
        "data_arc_in_days": 2,
        "observations_used": 18,
        "orbit_uncertainty": "9",
        "minimum_orbit_intersection": ".0454804",
        "jupiter_tisserand_invariant": "3.789",
        "epoch_osculation": "2454422.5",
        "eccentricity": ".607523163799802",
        "semi_major_axis": "1.740382657794251",
        "inclination": "29.57231750774115",
        "ascending_node_longitude": "53.62830512556516",
        "orbital_period": "838.6206409546031",
        "perihelion_distance": ".6830598793087795",
        "perihelion_argument": "273.304648913302",
        "aphelion_distance": "2.797705436279722",
        "perihelion_time": "2454366.632717419085",
        "mean_anomaly": "23.98250263222192",
        "mean_motion": ".4292763407185059",
        "equinox": "J2000",
        "orbit_class": {
            "orbit_class_type": "APO",
            "orbit_class_description": "Near-Earth asteroid orbits which cross the Earth’s orbit similar to that of 1862 Apollo",
            "orbit_class_range": "a (semi-major axis) > 1.0 AU; q (perihelion) < 1.017 AU"
        }
    },
    "is_sentry_object": false
}